[{"OBJECT_NAME":"SAUDICOMSAT 2","OBJECT_ID":"2004-025E","EPOCH":"2026-03-09T23:03:17.488512","MEAN_MOTION":14.49909502,"ECCENTRICITY":0.00552225,"INCLINATION":98.6687,"RA_OF_ASC_NODE":78.3866,"ARG_OF_PERICENTER":199.0256,"MEAN_ANOMALY":160.8875,"EPHEMERIS_TYPE":0,"CLASSIFICATION_TYPE":"U","NORAD_CAT_ID":28370,"ELEMENT_SET_NO":999,"REV_AT_EPOCH":14572,"BSTAR":0.00011691026,"MEAN_MOTION_DOT":4.11e-6,"MEAN_MOTION_DDOT":0},{"OBJECT_NAME":"UNIBRITE","OBJECT_ID":"2013-009G","EPOCH":"2026-03-09T11:14:46.417056","MEAN_MOTION":14.3636712,"ECCENTRICITY":0.00093657,"INCLINATION":98.3994,"RA_OF_ASC_NODE":250.468,"ARG_OF_PERICENTER":167.5557,"MEAN_ANOMALY":192.5863,"EPHEMERIS_TYPE":0,"CLASSIFICATION_TYPE":"U","NORAD_CAT_ID":39092,"ELEMENT_SET_NO":999,"REV_AT_EPOCH":68267,"BSTAR":0.00011622426,"MEAN_MOTION_DOT":2.98e-6,"MEAN_MOTION_DDOT":0}]
